{
 "generated_at": "2026-07-05T07:57:19Z",
 "sources": [
  {
   "name": "CelesTrak",
   "url": "https://celestrak.org/NORAD/elements/",
   "license": "frei verfügbar; Attribution. Ursprünglich USSPACECOM/Space-Track."
  },
  {
   "name": "GCAT (J. McDowell, planet4589.org)",
   "url": "https://planet4589.org/space/gcat/",
   "license": "CC-BY 4.0"
  }
 ],
 "satellites": [
  {
   "norad": 42987,
   "name": "SKYSAT-C11",
   "intl": "2017-068A",
   "group": "resource",
   "gcat": {
    "class": "B",
    "category": "IMG",
    "owner": "PLABST",
    "state": "US"
   },
   "omm": {
    "OBJECT_NAME": "SKYSAT-C11",
    "OBJECT_ID": "2017-068A",
    "EPOCH": "2026-07-04T09:28:51.130272",
    "MEAN_MOTION": 15.58821897,
    "ECCENTRICITY": 0.00005076,
    "INCLINATION": 97.4373,
    "RA_OF_ASC_NODE": 334.9871,
    "ARG_OF_PERICENTER": 161.2582,
    "MEAN_ANOMALY": 198.8692,
    "EPHEMERIS_TYPE": 0,
    "CLASSIFICATION_TYPE": "U",
    "NORAD_CAT_ID": 42987,
    "ELEMENT_SET_NO": 999,
    "REV_AT_EPOCH": 48592,
    "BSTAR": 0.0005279564,
    "MEAN_MOTION_DOT": 0.00040816,
    "MEAN_MOTION_DDOT": 0
   }
  },
  {
   "norad": 41773,
   "name": "SKYSAT-C2",
   "intl": "2016-058D",
   "group": "resource",
   "gcat": {
    "class": "B",
    "category": "IMG",
    "owner": "TBELLA",
    "state": "US"
   },
   "omm": {
    "OBJECT_NAME": "SKYSAT-C2",
    "OBJECT_ID": "2016-058D",
    "EPOCH": "2026-07-04T12:26:05.288928",
    "MEAN_MOTION": 15.42486152,
    "ECCENTRICITY": 0.00028173,
    "INCLINATION": 97.0161,
    "RA_OF_ASC_NODE": 206.964,
    "ARG_OF_PERICENTER": 29.5218,
    "MEAN_ANOMALY": 330.6189,
    "EPHEMERIS_TYPE": 0,
    "CLASSIFICATION_TYPE": "U",
    "NORAD_CAT_ID": 41773,
    "ELEMENT_SET_NO": 999,
    "REV_AT_EPOCH": 54772,
    "BSTAR": 0.00052377739,
    "MEAN_MOTION_DOT": 0.00022648,
    "MEAN_MOTION_DDOT": 0
   }
  },
  {
   "norad": 41774,
   "name": "SKYSAT-C3",
   "intl": "2016-058E",
   "group": "resource",
   "gcat": {
    "class": "B",
    "category": "IMG",
    "owner": "TBELLA",
    "state": "US"
   },
   "omm": {
    "OBJECT_NAME": "SKYSAT-C3",
    "OBJECT_ID": "2016-058E",
    "EPOCH": "2026-07-04T13:00:09.711648",
    "MEAN_MOTION": 15.53318604,
    "ECCENTRICITY": 0.00017023,
    "INCLINATION": 96.8996,
    "RA_OF_ASC_NODE": 215.7278,
    "ARG_OF_PERICENTER": 134.9962,
    "MEAN_ANOMALY": 225.1431,
    "EPHEMERIS_TYPE": 0,
    "CLASSIFICATION_TYPE": "U",
    "NORAD_CAT_ID": 41774,
    "ELEMENT_SET_NO": 999,
    "REV_AT_EPOCH": 54880,
    "BSTAR": 0.00068379473,
    "MEAN_MOTION_DOT": 0.00043204,
    "MEAN_MOTION_DDOT": 0
   }
  },
  {
   "norad": 41771,
   "name": "SKYSAT-C4",
   "intl": "2016-058B",
   "group": "resource",
   "gcat": {
    "class": "B",
    "category": "IMG",
    "owner": "TBELLA",
    "state": "US"
   },
   "omm": {
    "OBJECT_NAME": "SKYSAT-C4",
    "OBJECT_ID": "2016-058B",
    "EPOCH": "2026-07-04T07:46:12.417312",
    "MEAN_MOTION": 15.49141148,
    "ECCENTRICITY": 0.00028545,
    "INCLINATION": 96.9163,
    "RA_OF_ASC_NODE": 206.3834,
    "ARG_OF_PERICENTER": 134.2708,
    "MEAN_ANOMALY": 225.8779,
    "EPHEMERIS_TYPE": 0,
    "CLASSIFICATION_TYPE": "U",
    "NORAD_CAT_ID": 41771,
    "ELEMENT_SET_NO": 999,
    "REV_AT_EPOCH": 54812,
    "BSTAR": 0.00041239451,
    "MEAN_MOTION_DOT": 0.00022372,
    "MEAN_MOTION_DDOT": 0
   }
  },
  {
   "norad": 41772,
   "name": "SKYSAT-C5",
   "intl": "2016-058C",
   "group": "resource",
   "gcat": {
    "class": "B",
    "category": "IMG",
    "owner": "TBELLA",
    "state": "US"
   },
   "omm": {
    "OBJECT_NAME": "SKYSAT-C5",
    "OBJECT_ID": "2016-058C",
    "EPOCH": "2026-07-04T13:54:12.384864",
    "MEAN_MOTION": 15.34732331,
    "ECCENTRICITY": 0.00021628,
    "INCLINATION": 97.0456,
    "RA_OF_ASC_NODE": 225.445,
    "ARG_OF_PERICENTER": 184.1062,
    "MEAN_ANOMALY": 176.0164,
    "EPHEMERIS_TYPE": 0,
    "CLASSIFICATION_TYPE": "U",
    "NORAD_CAT_ID": 41772,
    "ELEMENT_SET_NO": 999,
    "REV_AT_EPOCH": 54641,
    "BSTAR": 0.00041657415,
    "MEAN_MOTION_DOT": 0.0001396,
    "MEAN_MOTION_DDOT": 0
   }
  },
  {
   "norad": 42992,
   "name": "SKYSAT-C6",
   "intl": "2017-068F",
   "group": "resource",
   "gcat": {
    "class": "B",
    "category": "IMG",
    "owner": "PLABST",
    "state": "US"
   },
   "omm": {
    "OBJECT_NAME": "SKYSAT-C6",
    "OBJECT_ID": "2017-068F",
    "EPOCH": "2026-07-04T15:02:21.003936",
    "MEAN_MOTION": 15.34280594,
    "ECCENTRICITY": 0.0005202,
    "INCLINATION": 97.4597,
    "RA_OF_ASC_NODE": 323.4064,
    "ARG_OF_PERICENTER": 104.6209,
    "MEAN_ANOMALY": 255.561,
    "EPHEMERIS_TYPE": 0,
    "CLASSIFICATION_TYPE": "U",
    "NORAD_CAT_ID": 42992,
    "ELEMENT_SET_NO": 999,
    "REV_AT_EPOCH": 48499,
    "BSTAR": 0.00047808449,
    "MEAN_MOTION_DOT": 0.00015807,
    "MEAN_MOTION_DDOT": 0
   }
  },
  {
   "norad": 42991,
   "name": "SKYSAT-C7",
   "intl": "2017-068E",
   "group": "resource",
   "gcat": {
    "class": "B",
    "category": "IMG",
    "owner": "PLABST",
    "state": "US"
   },
   "omm": {
    "OBJECT_NAME": "SKYSAT-C7",
    "OBJECT_ID": "2017-068E",
    "EPOCH": "2026-07-04T02:50:08.504736",
    "MEAN_MOTION": 15.37264492,
    "ECCENTRICITY": 0.00065931,
    "INCLINATION": 97.4559,
    "RA_OF_ASC_NODE": 322.9903,
    "ARG_OF_PERICENTER": 56.7606,
    "MEAN_ANOMALY": 303.4269,
    "EPHEMERIS_TYPE": 0,
    "CLASSIFICATION_TYPE": "U",
    "NORAD_CAT_ID": 42991,
    "ELEMENT_SET_NO": 999,
    "REV_AT_EPOCH": 48497,
    "BSTAR": 0.0003704449,
    "MEAN_MOTION_DOT": 0.00013456,
    "MEAN_MOTION_DDOT": 0
   }
  },
  {
   "norad": 42990,
   "name": "SKYSAT-C8",
   "intl": "2017-068D",
   "group": "resource",
   "gcat": {
    "class": "B",
    "category": "IMG",
    "owner": "PLABST",
    "state": "US"
   },
   "omm": {
    "OBJECT_NAME": "SKYSAT-C8",
    "OBJECT_ID": "2017-068D",
    "EPOCH": "2026-07-04T15:28:25.040928",
    "MEAN_MOTION": 15.37333159,
    "ECCENTRICITY": 0.00012024,
    "INCLINATION": 97.4548,
    "RA_OF_ASC_NODE": 322.5339,
    "ARG_OF_PERICENTER": 96.1463,
    "MEAN_ANOMALY": 263.9918,
    "EPHEMERIS_TYPE": 0,
    "CLASSIFICATION_TYPE": "U",
    "NORAD_CAT_ID": 42990,
    "ELEMENT_SET_NO": 999,
    "REV_AT_EPOCH": 48499,
    "BSTAR": 0.00052197355,
    "MEAN_MOTION_DOT": 0.00019038,
    "MEAN_MOTION_DDOT": 0
   }
  },
  {
   "norad": 42989,
   "name": "SKYSAT-C9",
   "intl": "2017-068C",
   "group": "resource",
   "gcat": {
    "class": "B",
    "category": "IMG",
    "owner": "PLABST",
    "state": "US"
   },
   "omm": {
    "OBJECT_NAME": "SKYSAT-C9",
    "OBJECT_ID": "2017-068C",
    "EPOCH": "2026-07-04T15:11:22.970400",
    "MEAN_MOTION": 15.42013324,
    "ECCENTRICITY": 0.00092916,
    "INCLINATION": 97.4451,
    "RA_OF_ASC_NODE": 323.7579,
    "ARG_OF_PERICENTER": 78.2825,
    "MEAN_ANOMALY": 281.9464,
    "EPHEMERIS_TYPE": 0,
    "CLASSIFICATION_TYPE": "U",
    "NORAD_CAT_ID": 42989,
    "ELEMENT_SET_NO": 999,
    "REV_AT_EPOCH": 48544,
    "BSTAR": 0.00055680997,
    "MEAN_MOTION_DOT": 0.00023734,
    "MEAN_MOTION_DDOT": 0
   }
  },
  {
   "norad": 40376,
   "name": "SMAP",
   "intl": "2015-003A",
   "group": "resource",
   "gcat": {
    "class": "C",
    "category": "EOSCI",
    "owner": "JPL",
    "state": "US"
   },
   "omm": {
    "OBJECT_NAME": "SMAP",
    "OBJECT_ID": "2015-003A",
    "EPOCH": "2026-07-04T10:44:15.392832",
    "MEAN_MOTION": 14.63382373,
    "ECCENTRICITY": 0.00015039,
    "INCLINATION": 98.1278,
    "RA_OF_ASC_NODE": 192.2975,
    "ARG_OF_PERICENTER": 97.9514,
    "MEAN_ANOMALY": 262.1859,
    "EPHEMERIS_TYPE": 0,
    "CLASSIFICATION_TYPE": "U",
    "NORAD_CAT_ID": 40376,
    "ELEMENT_SET_NO": 999,
    "REV_AT_EPOCH": 61014,
    "BSTAR": 0.0001099477,
    "MEAN_MOTION_DOT": 0.00000521,
    "MEAN_MOTION_DDOT": 0
   }
  }
 ]
}
